{"type": "FeatureCollection", "features": [{"type": "Feature", "properties": {"norad_id": 28054, "name": "DMSP 5D-3 F16 (USA 172)", "group": "weather", "lat": -47.18106385431461, "lon": 23.326946060319646, "alt_km": 846.7656733431877, "timestamp": "2025-12-21T22:41:41.090612+00:00", "meta": {"OBJECT_NAME": "DMSP 5D-3 F16 (USA 172)", "OBJECT_ID": "2003-048A", "EPOCH": "2025-12-21T14:56:59.126784", "MEAN_MOTION": 14.14427158, "ECCENTRICITY": 0.00062735, "INCLINATION": 99.0038, "RA_OF_ASC_NODE": 13.1495, "ARG_OF_PERICENTER": 292.5269, "MEAN_ANOMALY": 177.2775, "EPHEMERIS_TYPE": 0, "CLASSIFICATION_TYPE": "U", "NORAD_CAT_ID": 28054, "ELEMENT_SET_NO": 999, "REV_AT_EPOCH": 14438, "BSTAR": 7.00682e-05, "MEAN_MOTION_DOT": 8.9e-07, "MEAN_MOTION_DDOT": 0}, "tle": {"line1": "1 28054U 03048A   25355.62290656  .00000089  00000+0  70068-4 0  9991", "line2": "2 28054  99.0038  13.1495 0006273 292.5269 177.2775 14.14427158144389"}}, "geometry": {"type": "Point", "coordinates": [23.326946060319646, -47.18106385431461]}}, {"type": "Feature", "properties": {"norad_id": 28912, "name": "METEOSAT-9 (MSG-2)", "group": "weather", "lat": 7.807690320878266, "lon": 116.16476434752373, "alt_km": 36109.80882145114, "timestamp": "2025-12-21T22:41:41.090661+00:00", "meta": {"OBJECT_NAME": "METEOSAT-9 (MSG-2)", "OBJECT_ID": "2005-049B", "EPOCH": "2025-12-20T18:34:58.766592", "MEAN_MOTION": 1.00265537, "ECCENTRICITY": 0.01042854, "INCLINATION": 8.9429, "RA_OF_ASC_NODE": 55.8777, "ARG_OF_PERICENTER": 282.8799, "MEAN_ANOMALY": 74.1046, "EPHEMERIS_TYPE": 0, "CLASSIFICATION_TYPE": "U", "NORAD_CAT_ID": 28912, "ELEMENT_SET_NO": 999, "REV_AT_EPOCH": 520, "BSTAR": 0, "MEAN_MOTION_DOT": 1.08e-06, "MEAN_MOTION_DDOT": 0}, "tle": {"line1": "1 28912U 05049B   25354.77429128  .00000108  00000+0  00000+0 0  9996", "line2": "2 28912   8.9429  55.8777 0104285 282.8799  74.1046  1.00265537  5208"}}, "geometry": {"type": "Point", "coordinates": [116.16476434752373, 7.807690320878266]}}, {"type": "Feature", "properties": {"norad_id": 29522, "name": "DMSP 5D-3 F17 (USA 191)", "group": "weather", "lat": -81.17254054365311, "lon": 99.06822899401051, "alt_km": 847.6619895525837, "timestamp": "2025-12-21T22:41:41.090679+00:00", "meta": {"OBJECT_NAME": "DMSP 5D-3 F17 (USA 191)", "OBJECT_ID": "2006-050A", "EPOCH": "2025-12-21T12:56:33.785088", "MEAN_MOTION": 14.14923292, "ECCENTRICITY": 0.00097723, "INCLINATION": 98.739, "RA_OF_ASC_NODE": 0.7451, "ARG_OF_PERICENTER": 198.3974, "MEAN_ANOMALY": 161.6848, "EPHEMERIS_TYPE": 0, "CLASSIFICATION_TYPE": "U", "NORAD_CAT_ID": 29522, "ELEMENT_SET_NO": 999, "REV_AT_EPOCH": 98729, "BSTAR": 8.7791057e-05, "MEAN_MOTION_DOT": 1.26e-06, "MEAN_MOTION_DDOT": 0}, "tle": {"line1": "1 29522U 06050A   25355.53927992  .00000126  00000+0  87791-4 0  9991", "line2": "2 29522  98.7390   0.7451 0009772 198.3974 161.6848 14.14923292987297"}}, "geometry": {"type": "Point", "coordinates": [99.06822899401051, -81.17254054365311]}}, {"type": "Feature", "properties": {"norad_id": 32958, "name": "FENGYUN 3A", "group": "weather", "lat": 44.607804619603485, "lon": 123.93619883112937, "alt_km": 827.724198530068, "timestamp": "2025-12-21T22:41:41.090692+00:00", "meta": {"OBJECT_NAME": "FENGYUN 3A", "OBJECT_ID": "2008-026A", "EPOCH": "2025-12-21T13:36:12.790944", "MEAN_MOTION": 14.19517107, "ECCENTRICITY": 0.00076548, "INCLINATION": 98.6709, "RA_OF_ASC_NODE": 294.9081, "ARG_OF_PERICENTER": 281.9296, "MEAN_ANOMALY": 78.1022, "EPHEMERIS_TYPE": 0, "CLASSIFICATION_TYPE": "U", "NORAD_CAT_ID": 32958, "ELEMENT_SET_NO": 999, "REV_AT_EPOCH": 91020, "BSTAR": 5.6290084e-05, "MEAN_MOTION_DOT": 7.5e-07, "MEAN_MOTION_DDOT": 0}, "tle": {"line1": "1 32958U 08026A   25355.56681471  .00000075  00000+0  56290-4 0  9998", "line2": "2 32958  98.6709 294.9081 0007654 281.9296  78.1022 14.19517107910208"}}, "geometry": {"type": "Point", "coordinates": [123.93619883112937, 44.607804619603485]}}, {"type": "Feature", "properties": {"norad_id": 35491, "name": "GOES 14", "group": "weather", "lat": -0.9635890306731709, "lon": -44.390066185390744, "alt_km": 35833.695370367685, "timestamp": "2025-12-21T22:41:41.090706+00:00", "meta": {"OBJECT_NAME": "GOES 14", "OBJECT_ID": "2009-033A", "EPOCH": "2025-12-21T12:09:15.385248", "MEAN_MOTION": 1.00096928, "ECCENTRICITY": 5.358e-05, "INCLINATION": 1.2252, "RA_OF_ASC_NODE": 85.3172, "ARG_OF_PERICENTER": 184.7328, "MEAN_ANOMALY": 247.3042, "EPHEMERIS_TYPE": 0, "CLASSIFICATION_TYPE": "U", "NORAD_CAT_ID": 35491, "ELEMENT_SET_NO": 999, "REV_AT_EPOCH": 481, "BSTAR": 0, "MEAN_MOTION_DOT": 2.4e-07, "MEAN_MOTION_DDOT": 0}, "tle": {"line1": "1 35491U 09033A   25355.50642807  .00000024  00000+0  00000+0 0  9993", "line2": "2 35491   1.2252  85.3172 0000535 184.7328 247.3042  1.00096928  4818"}}, "geometry": {"type": "Point", "coordinates": [-44.390066185390744, -0.9635890306731709]}}, {"type": "Feature", "properties": {"norad_id": 35951, "name": "DMSP 5D-3 F18 (USA 210)", "group": "weather", "lat": 47.773481601283606, "lon": 162.224809084198, "alt_km": 839.2042157074748, "timestamp": "2025-12-21T22:41:41.090719+00:00", "meta": {"OBJECT_NAME": "DMSP 5D-3 F18 (USA 210)", "OBJECT_ID": "2009-057A", "EPOCH": "2025-12-21T13:35:24.927936", "MEAN_MOTION": 14.14774744, "ECCENTRICITY": 0.00118301, "INCLINATION": 98.8844, "RA_OF_ASC_NODE": 331.9233, "ARG_OF_PERICENTER": 39.4817, "MEAN_ANOMALY": 320.7216, "EPHEMERIS_TYPE": 0, "CLASSIFICATION_TYPE": "U", "NORAD_CAT_ID": 35951, "ELEMENT_SET_NO": 999, "REV_AT_EPOCH": 83447, "BSTAR": 0.00014856151, "MEAN_MOTION_DOT": 2.42e-06, "MEAN_MOTION_DDOT": 0}, "tle": {"line1": "1 35951U 09057A   25355.56626074  .00000242  00000+0  14856-3 0  9994", "line2": "2 35951  98.8844 331.9233 0011830  39.4817 320.7216 14.14774744834475"}}, "geometry": {"type": "Point", "coordinates": [162.224809084198, 47.773481601283606]}}, {"type": "Feature", "properties": {"norad_id": 36411, "name": "EWS-G2 (GOES 15)", "group": "weather", "lat": 0.6254431674255699, "lon": 132.48229955961548, "alt_km": 35801.546048489276, "timestamp": "2025-12-21T22:41:41.090731+00:00", "meta": {"OBJECT_NAME": "EWS-G2 (GOES 15)", "OBJECT_ID": "2010-008A", "EPOCH": "2025-12-21T11:46:40.910592", "MEAN_MOTION": 1.00270942, "ECCENTRICITY": 0.00054535, "INCLINATION": 0.834, "RA_OF_ASC_NODE": 86.0823, "ARG_OF_PERICENTER": 177.9274, "MEAN_ANOMALY": 64.3316, "EPHEMERIS_TYPE": 0, "CLASSIFICATION_TYPE": "U", "NORAD_CAT_ID": 36411, "ELEMENT_SET_NO": 999, "REV_AT_EPOCH": 5785, "BSTAR": 0, "MEAN_MOTION_DOT": 6e-07, "MEAN_MOTION_DDOT": 0}, "tle": {"line1": "1 36411U 10008A   25355.49075128  .00000060  00000+0  00000+0 0  9994", "line2": "2 36411   0.8340  86.0823 0005453 177.9274  64.3316  1.00270942 57856"}}, "geometry": {"type": "Point", "coordinates": [132.48229955961548, 0.6254431674255699]}}, {"type": "Feature", "properties": {"norad_id": 36744, "name": "COMS 1", "group": "weather", "lat": 3.716524411750895, "lon": -160.57860039883226, "alt_km": 35785.512231510074, "timestamp": "2025-12-21T22:41:41.090745+00:00", "meta": {"OBJECT_NAME": "COMS 1", "OBJECT_ID": "2010-032A", "EPOCH": "2025-12-21T13:48:29.244672", "MEAN_MOTION": 1.00271671, "ECCENTRICITY": 7.342e-05, "INCLINATION": 4.3603, "RA_OF_ASC_NODE": 77.8986, "ARG_OF_PERICENTER": 208.332, "MEAN_ANOMALY": 139.4621, "EPHEMERIS_TYPE": 0, "CLASSIFICATION_TYPE": "U", "NORAD_CAT_ID": 36744, "ELEMENT_SET_NO": 999, "REV_AT_EPOCH": 4930, "BSTAR": 0, "MEAN_MOTION_DOT": -3.25e-06, "MEAN_MOTION_DDOT": 0}, "tle": {"line1": "1 36744U 10032A   25355.57533848 -.00000325  00000+0  00000+0 0  9992", "line2": "2 36744   4.3603  77.8986 0000734 208.3320 139.4621  1.00271671 49306"}}, "geometry": {"type": "Point", "coordinates": [-160.57860039883226, 3.716524411750895]}}, {"type": "Feature", "properties": {"norad_id": 37214, "name": "FENGYUN 3B", "group": "weather", "lat": 78.7846682103578, "lon": -91.0405382531618, "alt_km": 844.6194883493054, "timestamp": "2025-12-21T22:41:41.090758+00:00", "meta": {"OBJECT_NAME": "FENGYUN 3B", "OBJECT_ID": "2010-059A", "EPOCH": "2025-12-21T15:58:22.369152", "MEAN_MOTION": 14.14792169, "ECCENTRICITY": 0.00216656, "INCLINATION": 98.9896, "RA_OF_ASC_NODE": 35.7051, "ARG_OF_PERICENTER": 332.4272, "MEAN_ANOMALY": 138.3698, "EPHEMERIS_TYPE": 0, "CLASSIFICATION_TYPE": "U", "NORAD_CAT_ID": 37214, "ELEMENT_SET_NO": 999, "REV_AT_EPOCH": 78232, "BSTAR": 3.7171085e-05, "MEAN_MOTION_DOT": 2.6e-07, "MEAN_MOTION_DDOT": 0}, "tle": {"line1": "1 37214U 10059A   25355.66553668  .00000026  00000+0  37171-4 0  9997", "line2": "2 37214  98.9896  35.7051 0021665 332.4272 138.3698 14.14792169782326"}}, "geometry": {"type": "Point", "coordinates": [-91.0405382531618, 78.7846682103578]}}, {"type": "Feature", "properties": {"norad_id": 37849, "name": "SUOMI NPP", "group": "weather", "lat": 80.54681547118624, "lon": -178.6736076835585, "alt_km": 817.8366615159666, "timestamp": "2025-12-21T22:41:41.090769+00:00", "meta": {"OBJECT_NAME": "SUOMI NPP", "OBJECT_ID": "2011-061A", "EPOCH": "2025-12-17T23:31:21.474624", "MEAN_MOTION": 14.19515682, "ECCENTRICITY": 0.00023932, "INCLINATION": 98.7779, "RA_OF_ASC_NODE": 289.2746, "ARG_OF_PERICENTER": 111.1248, "MEAN_ANOMALY": 249.0184, "EPHEMERIS_TYPE": 0, "CLASSIFICATION_TYPE": "U", "NORAD_CAT_ID": 37849, "ELEMENT_SET_NO": 999, "REV_AT_EPOCH": 73273, "BSTAR": 4.8615036e-05, "MEAN_MOTION_DOT": 5.8e-07, "MEAN_MOTION_DDOT": 0}, "tle": {"line1": "1 37849U 11061A   25351.98010966  .00000058  00000+0  48615-4 0  9995", "line2": "2 37849  98.7779 289.2746 0002393 111.1248 249.0184 14.19515682732735"}}, "geometry": {"type": "Point", "coordinates": [-178.6736076835585, 80.54681547118624]}}]}